[{"OBJECT_NAME":"STARLINK-3591","OBJECT_ID":"2022-022U","EPOCH":"2026-03-09T03:52:57.036000","MEAN_MOTION":15.08840713,"ECCENTRICITY":0.00012411,"INCLINATION":53.2195,"RA_OF_ASC_NODE":11.4937,"ARG_OF_PERICENTER":83.3312,"MEAN_ANOMALY":276.7821,"EPHEMERIS_TYPE":0,"CLASSIFICATION_TYPE":"U","NORAD_CAT_ID":51870,"ELEMENT_SET_NO":999,"REV_AT_EPOCH":22308,"BSTAR":-4.7550801e-5,"MEAN_MOTION_DOT":-1.045e-5,"MEAN_MOTION_DDOT":0},{"OBJECT_NAME":"OBJECT E","OBJECT_ID":"2024-205E","EPOCH":"2026-03-09T21:50:57.607872","MEAN_MOTION":15.117677,"ECCENTRICITY":0.00499914,"INCLINATION":97.419,"RA_OF_ASC_NODE":142.6836,"ARG_OF_PERICENTER":337.9131,"MEAN_ANOMALY":21.9945,"EPHEMERIS_TYPE":0,"CLASSIFICATION_TYPE":"U","NORAD_CAT_ID":61898,"ELEMENT_SET_NO":999,"REV_AT_EPOCH":7323,"BSTAR":0.00048588417,"MEAN_MOTION_DOT":8.479e-5,"MEAN_MOTION_DDOT":0}]
